{"type": "FeatureCollection", "features": [ {"type": "Feature", "properties": {"norad_id": 30758, "name": "FENGYUN 1C DEB", "group": "fengyun-1c-debris", "lat": 49.97639533630711, "lon": 89.32969726642392, "alt_km": 807.1295211464312, "timestamp": "2025-12-07T14:37:05.483281+00:00", "meta": {"OBJECT_NAME": "FENGYUN 1C DEB", "OBJECT_ID": "1999-025ATU", "EPOCH": "2025-12-06T14:43:39.862848", "MEAN_MOTION": 14.17072072, "ECCENTRICITY": 0.00385719, "INCLINATION": 99.0187, "RA_OF_ASC_NODE": 99.2217, "ARG_OF_PERICENTER": 21.236, "MEAN_ANOMALY": 354.0745, "EPHEMERIS_TYPE": 0, "CLASSIFICATION_TYPE": "U", "NORAD_CAT_ID": 30758, "ELEMENT_SET_NO": 999, "REV_AT_EPOCH": 96404, "BSTAR": 0.0019521116, "MEAN_MOTION_DOT": 3.913e-05, "MEAN_MOTION_DDOT": 0}, "tle": {"line1": "1 30758U 99025ATU 25340.61365582  .00003913  00000+0  19521-2 0  9993", "line2": "2 30758  99.0187  99.2217 0038571  21.2360 354.0745 14.17072072964049"}}, "geometry": {"type": "Point", "coordinates": [89.32969726642392, 49.97639533630711]}}, {"type": "Feature", "properties": {"norad_id": 30759, "name": "FENGYUN 1C DEB", "group": "fengyun-1c-debris", "lat": 38.70632817175481, "lon": -83.66589836873894, "alt_km": 703.2631629064181, "timestamp": "2025-12-07T14:37:05.483291+00:00", "meta": {"OBJECT_NAME": "FENGYUN 1C DEB", "OBJECT_ID": "1999-025ATV", "EPOCH": "2025-12-06T18:51:01.858752", "MEAN_MOTION": 14.54317514, "ECCENTRICITY": 0.00094771, "INCLINATION": 99.2569, "RA_OF_ASC_NODE": 87.9143, "ARG_OF_PERICENTER": 181.5148, "MEAN_ANOMALY": 329.2979, "EPHEMERIS_TYPE": 0, "CLASSIFICATION_TYPE": "U", "NORAD_CAT_ID": 30759, "ELEMENT_SET_NO": 999, "REV_AT_EPOCH": 97568, "BSTAR": 0.0046972238, "MEAN_MOTION_DOT": 0.00019951, "MEAN_MOTION_DDOT": 0}, "tle": {"line1": "1 30759U 99025ATV 25340.78543818  .00019951  00000+0  46972-2 0  9991", "line2": "2 30759  99.2569  87.9143 0009477 181.5148 329.2979 14.54317514975684"}}, "geometry": {"type": "Point", "coordinates": [-83.66589836873894, 38.70632817175481]}}, {"type": "Feature", "properties": {"norad_id": 30760, "name": "FENGYUN 1C DEB", "group": "fengyun-1c-debris", "lat": 7.2495274737561886, "lon": -22.702392997378528, "alt_km": 839.8017658439667, "timestamp": "2025-12-07T14:37:05.483301+00:00", "meta": {"OBJECT_NAME": "FENGYUN 1C DEB", "OBJECT_ID": "1999-025ATW", "EPOCH": "2025-12-06T23:12:12.784032", "MEAN_MOTION": 14.05173738, "ECCENTRICITY": 0.0053124, "INCLINATION": 98.822, "RA_OF_ASC_NODE": 337.8049, "ARG_OF_PERICENTER": 359.822, "MEAN_ANOMALY": 0.2921, "EPHEMERIS_TYPE": 0, "CLASSIFICATION_TYPE": "U", "NORAD_CAT_ID": 30760, "ELEMENT_SET_NO": 999, "REV_AT_EPOCH": 96141, "BSTAR": 0.00030602964, "MEAN_MOTION_DOT": 4.57e-06, "MEAN_MOTION_DDOT": 0}, "tle": {"line1": "1 30760U 99025ATW 25340.96681463  .00000457  00000+0  30603-3 0  9998", "line2": "2 30760  98.8220 337.8049 0053124 359.8220   0.2921 14.05173738961419"}}, "geometry": {"type": "Point", "coordinates": [-22.702392997378528, 7.2495274737561886]}}, {"type": "Feature", "properties": {"norad_id": 30761, "name": "FENGYUN 1C DEB", "group": "fengyun-1c-debris", "lat": -80.83307185591646, "lon": -14.46488672185926, "alt_km": 746.6036560911716, "timestamp": "2025-12-07T14:37:05.483311+00:00", "meta": {"OBJECT_NAME": "FENGYUN 1C DEB", "OBJECT_ID": "1999-025ATX", "EPOCH": "2025-12-06T17:16:42.777984", "MEAN_MOTION": 14.35714333, "ECCENTRICITY": 0.00849181, "INCLINATION": 98.9655, "RA_OF_ASC_NODE": 266.5713, "ARG_OF_PERICENTER": 331.5753, "MEAN_ANOMALY": 28.0813, "EPHEMERIS_TYPE": 0, "CLASSIFICATION_TYPE": "U", "NORAD_CAT_ID": 30761, "ELEMENT_SET_NO": 999, "REV_AT_EPOCH": 97655, "BSTAR": 0.0020499575, "MEAN_MOTION_DOT": 6.126e-05, "MEAN_MOTION_DDOT": 0}, "tle": {"line1": "1 30761U 99025ATX 25340.71993956  .00006126  00000+0  20500-2 0  9998", "line2": "2 30761  98.9655 266.5713 0084918 331.5753  28.0813 14.35714333976556"}}, "geometry": {"type": "Point", "coordinates": [-14.46488672185926, -80.83307185591646]}}, {"type": "Feature", "properties": {"norad_id": 30762, "name": "FENGYUN 1C DEB", "group": "fengyun-1c-debris", "lat": 61.56282446543765, "lon": -44.20483304906543, "alt_km": 949.7273311494791, "timestamp": "2025-12-07T14:37:05.483321+00:00", "meta": {"OBJECT_NAME": "FENGYUN 1C DEB", "OBJECT_ID": "1999-025ATY", "EPOCH": "2025-12-06T23:07:55.136640", "MEAN_MOTION": 13.98075472, "ECCENTRICITY": 0.01979517, "INCLINATION": 98.8741, "RA_OF_ASC_NODE": 331.9387, "ARG_OF_PERICENTER": 311.096, "MEAN_ANOMALY": 103.8854, "EPHEMERIS_TYPE": 0, "CLASSIFICATION_TYPE": "U", "NORAD_CAT_ID": 30762, "ELEMENT_SET_NO": 999, "REV_AT_EPOCH": 95557, "BSTAR": 0.00087651012, "MEAN_MOTION_DOT": 1.428e-05, "MEAN_MOTION_DDOT": 0}, "tle": {"line1": "1 30762U 99025ATY 25340.96383260  .00001428  00000+0  87651-3 0  9998", "line2": "2 30762  98.8741 331.9387 0197951 311.0960 103.8854 13.98075472955579"}}, "geometry": {"type": "Point", "coordinates": [-44.20483304906543, 61.56282446543765]}}, {"type": "Feature", "properties": {"norad_id": 30763, "name": "FENGYUN 1C DEB", "group": "fengyun-1c-debris", "lat": -37.491423915357686, "lon": -134.30266427778363, "alt_km": 690.4720287641476, "timestamp": "2025-12-07T14:37:05.483331+00:00", "meta": {"OBJECT_NAME": "FENGYUN 1C DEB", "OBJECT_ID": "1999-025ATZ", "EPOCH": "2025-12-06T21:27:19.293120", "MEAN_MOTION": 14.60743533, "ECCENTRICITY": 0.00225979, "INCLINATION": 98.8929, "RA_OF_ASC_NODE": 51.8281, "ARG_OF_PERICENTER": 286.1304, "MEAN_ANOMALY": 133.5906, "EPHEMERIS_TYPE": 0, "CLASSIFICATION_TYPE": "U", "NORAD_CAT_ID": 30763, "ELEMENT_SET_NO": 999, "REV_AT_EPOCH": 97059, "BSTAR": 0.0064558031, "MEAN_MOTION_DOT": 0.0003169, "MEAN_MOTION_DDOT": 0}, "tle": {"line1": "1 30763U 99025ATZ 25340.89397330  .00031690  00000+0  64558-2 0  9998", "line2": "2 30763  98.8929  51.8281 0022597 286.1304 133.5906 14.60743533970593"}}, "geometry": {"type": "Point", "coordinates": [-134.30266427778363, -37.491423915357686]}}, {"type": "Feature", "properties": {"norad_id": 30764, "name": "FENGYUN 1C DEB", "group": "fengyun-1c-debris", "lat": -78.95785322776385, "lon": 3.717751449019522, "alt_km": 485.98925028007216, "timestamp": "2025-12-07T14:37:05.483341+00:00", "meta": {"OBJECT_NAME": "FENGYUN 1C DEB", "OBJECT_ID": "1999-025AUA", "EPOCH": "2025-12-06T21:42:13.926240", "MEAN_MOTION": 15.28575004, "ECCENTRICITY": 0.00760364, "INCLINATION": 98.7783, "RA_OF_ASC_NODE": 310.5269, "ARG_OF_PERICENTER": 190.038, "MEAN_ANOMALY": 169.9342, "EPHEMERIS_TYPE": 0, "CLASSIFICATION_TYPE": "U", "NORAD_CAT_ID": 30764, "ELEMENT_SET_NO": 999, "REV_AT_EPOCH": 1133, "BSTAR": 0.0013856542, "MEAN_MOTION_DOT": 0.00042103, "MEAN_MOTION_DDOT": 0}, "tle": {"line1": "1 30764U 99025AUA 25340.90432785  .00042103  00000+0  13857-2 0  9992", "line2": "2 30764  98.7783 310.5269 0076036 190.0380 169.9342 15.28575004 11332"}}, "geometry": {"type": "Point", "coordinates": [3.717751449019522, -78.95785322776385]}}, {"type": "Feature", "properties": {"norad_id": 30765, "name": "FENGYUN 1C DEB", "group": "fengyun-1c-debris", "lat": -50.97015170594263, "lon": 38.687608028808974, "alt_km": 845.3028924931741, "timestamp": "2025-12-07T14:37:05.483352+00:00", "meta": {"OBJECT_NAME": "FENGYUN 1C DEB", "OBJECT_ID": "1999-025AUB", "EPOCH": "2025-12-06T14:08:48.544800", "MEAN_MOTION": 14.14682144, "ECCENTRICITY": 0.00679718, "INCLINATION": 98.7882, "RA_OF_ASC_NODE": 26.6828, "ARG_OF_PERICENTER": 226.5628, "MEAN_ANOMALY": 290.9332, "EPHEMERIS_TYPE": 0, "CLASSIFICATION_TYPE": "U", "NORAD_CAT_ID": 30765, "ELEMENT_SET_NO": 999, "REV_AT_EPOCH": 96735, "BSTAR": 0.0015876068, "MEAN_MOTION_DOT": 3.08e-05, "MEAN_MOTION_DDOT": 0}, "tle": {"line1": "1 30765U 99025AUB 25340.58945075  .00003080  00000+0  15876-2 0  9992", "line2": "2 30765  98.7882  26.6828 0067971 226.5628 290.9332 14.14682144967351"}}, "geometry": {"type": "Point", "coordinates": [38.687608028808974, -50.97015170594263]}}, {"type": "Feature", "properties": {"norad_id": 30766, "name": "FENGYUN 1C DEB", "group": "fengyun-1c-debris", "lat": -76.84830827217189, "lon": 22.973939665706055, "alt_km": 927.7606919402715, "timestamp": "2025-12-07T14:37:05.483362+00:00", "meta": {"OBJECT_NAME": "FENGYUN 1C DEB", "OBJECT_ID": "1999-025AUC", "EPOCH": "2025-11-29T06:02:29.152320", "MEAN_MOTION": 14.0947949, "ECCENTRICITY": 0.0083655, "INCLINATION": 98.6728, "RA_OF_ASC_NODE": 334.1388, "ARG_OF_PERICENTER": 112.2766, "MEAN_ANOMALY": 264.9384, "EPHEMERIS_TYPE": 0, "CLASSIFICATION_TYPE": "U", "NORAD_CAT_ID": 30766, "ELEMENT_SET_NO": 999, "REV_AT_EPOCH": 62607, "BSTAR": 0.00061885465, "MEAN_MOTION_DOT": 1.075e-05, "MEAN_MOTION_DDOT": 0}, "tle": {"line1": "1 30766U 99025AUC 25333.25172630  .00001075  00000+0  61885-3 0  9992", "line2": "2 30766  98.6728 334.1388 0083655 112.2766 264.9384 14.09479490626070"}}, "geometry": {"type": "Point", "coordinates": [22.973939665706055, -76.84830827217189]}}, {"type": "Feature", "properties": {"norad_id": 30768, "name": "FENGYUN 1C DEB", "group": "fengyun-1c-debris", "lat": -11.760824057845385, "lon": -110.55685142132184, "alt_km": 732.8132307030482, "timestamp": "2025-12-07T14:37:05.483372+00:00", "meta": {"OBJECT_NAME": "FENGYUN 1C DEB", "OBJECT_ID": "1999-025AUE", "EPOCH": "2025-12-06T11:47:20.141376", "MEAN_MOTION": 14.47747515, "ECCENTRICITY": 0.00257754, "INCLINATION": 98.6191, "RA_OF_ASC_NODE": 70.1138, "ARG_OF_PERICENTER": 119.0372, "MEAN_ANOMALY": 9.4642, "EPHEMERIS_TYPE": 0, "CLASSIFICATION_TYPE": "U", "NORAD_CAT_ID": 30768, "ELEMENT_SET_NO": 999, "REV_AT_EPOCH": 97780, "BSTAR": 0.0040977977, "MEAN_MOTION_DOT": 0.00015186, "MEAN_MOTION_DDOT": 0}, "tle": {"line1": "1 30768U 99025AUE 25340.49120534  .00015186  00000+0  40978-2 0  9991", "line2": "2 30768  98.6191  70.1138 0025775 119.0372   9.4642 14.47747515977800"}}, "geometry": {"type": "Point", "coordinates": [-110.55685142132184, -11.760824057845385]}}]}